METHANESAT              
1 59101U 24043D   25212.94623138  .00002566  00000+0  23639-3 0  9991
2 59101  97.8049 338.8105 0010804   6.3145 353.8210 14.95566606 76749
GOSAT-GW (IBUKI GW)     
1 64694U 25141A   25212.87520660  .00000858  00000+0  15964-3 0  9996
2 64694  98.0257 150.9596 0001438  84.4042 275.7326 14.67569927  4861
GHGSAT-C1               
1 46278U 20061G   25213.18050892  .00016710  00000+0  27966-3 0  9999
2 46278  97.2475 287.2220 0003263 126.0843 234.0712 15.51945693273564
GHGSAT-C2               
1 47509U 21006DA  25212.70343591  .00006273  00000+0  20029-3 0  9991
2 47509  97.2650 260.5517 0004520 227.0249 133.0615 15.32822256250674
GHGSAT-C3               
1 52737U 22057F   25213.19722705  .00006585  00000+0  23753-3 0  9992
2 52737  97.6180 344.0838 0007118 163.0686 197.0792 15.28854474176551
GHGSAT-C4               
1 52746U 22057Q   25213.08460622  .00006376  00000+0  23011-3 0  9992
2 52746  97.6110 343.1178 0007658 150.6441 209.5230 15.28845837176549
GHGSAT-C5               
1 52744U 22057N   25213.16640472  .00006739  00000+0  24310-3 0  9998
2 52744  97.6267 345.2550 0008204 161.0762 199.0784 15.28833745176550
GHGSAT-C6               
1 56204U 23054AC  25213.15219004  .00010609  00000+0  24597-3 0  9991
2 56204  97.3257 114.4377 0011015 121.3539 238.8788 15.42531984128952
GHGSAT-C7               
1 56209U 23054AH  25213.16770706  .00008859  00000+0  21145-3 0  9998
2 56209  97.3219 113.9903 0011013 115.3011 244.9379 15.41708838128957
GHGSAT-C8               
1 56186U 23054J   25213.19177889  .00010737  00000+0  24893-3 0  9999
2 56186  97.3226 113.9598 0007946 135.2208 224.9682 15.42557871128942
SENTINEL-5P             
1 42969U 17064A   25212.84456419  .00000064  00000+0  51413-4 0  9998
2 42969  98.7586 152.7644 0001302  82.9316 277.2008 14.19535498404114
ENMAP                   
1 52159U 22033C   25212.89645580  .00000488  00000+0  80060-4 0  9996
2 52159  97.9777 294.7462 0001273  88.9690 271.1664 14.74975095179440
PRISMA                  
1 44072U 19015A   25213.19669042  .00000895  00000+0  11478-3 0  9998
2 44072  97.8733 287.5580 0001224  95.5597 264.5757 14.83652520344609
SENTINEL-2A             
1 40697U 15028A   25213.21470825  .00000109  00000+0  58270-4 0  9999
2 40697  98.5675 287.6570 0001163  95.4017 264.7299 14.30822544527972
SENTINEL-2B             
1 42063U 17013A   25213.20751074  .00000116  00000+0  60759-4 0  9994
2 42063  98.5677 287.5923 0001251  96.5692 263.5633 14.30812777438891
SENTINEL-2C             
1 60989U 24157A   25212.82314258  .00000107  00000+0  57286-4 0  9995
2 60989  98.5667 287.2869 0001202  97.2791 262.8529 14.30822684 47178
LANDSAT 8               
1 39084U 13008A   25213.16256417  .00000452  00000+0  11049-3 0  9999
2 39084  98.2232 283.0818 0001297  88.2738 271.8609 14.57096192663111
LANDSAT 9               
1 49260U 21088A   25213.05954253  .00000367  00000+0  91480-4 0  9997
2 49260  98.2252 282.9824 0001284  84.9077 275.2268 14.57112861204370
TANAGER-1               
1 60507U 24149AR  25213.22715485  .00020995  00000+0  46560-3 0  9993
2 60507  97.4031 298.1784 0009645 235.6850 124.3486 15.43718059 53678
